ONEWEB-0212             
1 48791U 21045AA  26062.10992535  .00000031  00000+0  47684-4 0  9997
2 48791  87.8957 280.3625 0001641  87.2440 272.8878 13.15547149230487
ONEWEB-0227             
1 48792U 21045AB  26062.10913609  .00000053  00000+0  10804-3 0  9990
2 48792  87.8950 280.3654 0001626  91.3301 268.8015 13.15547227230438
ONEWEB-0226             
1 48793U 21045AC  26062.10279414 -.00000056  00000+0 -18383-3 0  9995
2 48793  87.8946 280.3757 0001414  99.6163 260.5127 13.15547678230400
ONEWEB-0224             
1 48794U 21045AD  26062.06635394  .00000193  00000+0  47952-3 0  9998
2 48794  87.8947 280.4193 0002457  95.3723 264.7687 13.15548072230327
ONEWEB-0233             
1 48795U 21045AE  26062.14702651  .00000052  00000+0  10464-3 0  9991
2 48795  87.8943 280.4125 0001701  97.1197 263.0127 13.15547257230353
ONEWEB-0190             
1 48796U 21045AF  26062.13448896  .00000169  00000+0  41368-3 0  9995
2 48796  87.8944 280.3759 0001637 114.4752 245.6549 13.15548110230426
ONEWEB-0236             
1 48797U 21045AG  26062.15191587 -.00000045  00000+0 -15430-3 0  9996
2 48797  87.8941 280.3837 0001647  82.9106 277.2212 13.15547609230312
ONEWEB-0248             
1 48798U 21045AH  26062.16460715 -.00000103  00000+0 -30689-3 0  9998
2 48798  87.8957 280.3538 0001920 101.3292 258.8054 13.15549922230470
ONEWEB-0225             
1 48799U 21045AJ  26062.11071758  .00000080  00000+0  17784-3 0  9992
2 48799  87.8944 280.3809 0001658 109.7196 250.4113 13.15547127230470
ONEWEB-0215             
1 48800U 21045AK  26062.15667795 -.00000092  00000+0 -27830-3 0  9999
2 48800  87.8960 280.3438 0001829 111.7268 248.4057 13.15547496230352
ONEWEB-0216             
1 48801U 21045AL  26062.09012931 -.00001275  00000+0 -34218-2 0  9990
2 48801  87.8948 280.3777 0001422  89.0115 271.1179 13.15536985230351
ONEWEB-0239             
1 48802U 21045AM  26062.09487405 -.00000071  00000+0 -22157-3 0  9996
2 48802  87.8946 280.3904 0002099 109.5395 250.5962 13.15547077230390
ONEWEB-0249             
1 48967U 21060A   26062.49312006  .00000070  00000+0  14969-3 0  9992
2 48967  87.9000 249.8044 0001728  96.7195 263.4133 13.16593144225701
ONEWEB-0250             
1 48968U 21060B   26062.50146840  .00000061  00000+0  10898-3 0  9993
2 48968  87.9000 247.9027 0002653  89.1129 271.0311 13.25827274226217
ONEWEB-0252             
1 48970U 21060D   26062.44799066  .00000059  00000+0  12012-3 0  9990
2 48970  87.8999 249.8061 0001370  96.1001 264.0286 13.16593628225740
ONEWEB-0253             
1 48971U 21060E   26062.51290463  .00000138  00000+0  32738-3 0  9991
2 48971  87.8999 249.7988 0001640  99.3886 260.7431 13.16593636225681
ONEWEB-0254             
1 48972U 21060F   26062.44640763  .00000022  00000+0  24272-4 0  9993
2 48972  87.9003 249.8065 0001855 101.5690 258.5649 13.16593221225678
